{
  "norad_id": 40115,
  "name": "WORLDVIEW-3 (WV-3)",
  "history": [
    {
      "epoch": "2026-03-28T20:18:38.989440Z",
      "apogee_km": 614.9549527381059,
      "perigee_km": 612.9841575844684,
      "latitude_deg": -4.286659869827839e-05,
      "longitude_deg": 32.85997781590179,
      "height_km": 617.8931830219777,
      "semi_major_axis_km": 6992.106555161287,
      "eccentricity": 0.00014093,
      "inclination_deg": 97.8605,
      "raan_deg": 163.7833,
      "arg_perigee_deg": 155.2699,
      "mean_anomaly_deg": 204.8583,
      "mean_motion_rev_day": 14.84877768
    },
    {
      "epoch": "2026-03-29T04:23:50.080128Z",
      "apogee_km": 614.9620374370916,
      "perigee_km": 612.9650935155905,
      "latitude_deg": -2.509104408092665e-05,
      "longitude_deg": -88.43593301740916,
      "height_km": 617.8964390599722,
      "semi_major_axis_km": 6992.10056547634,
      "eccentricity": 0.0001428,
      "inclination_deg": 97.8604,
      "raan_deg": 164.1157,
      "arg_perigee_deg": 154.9143,
      "mean_anomaly_deg": 205.2141,
      "mean_motion_rev_day": 14.84879676
    },
    {
      "epoch": "2026-03-30T04:39:23.328864Z",
      "apogee_km": 615.0002418369022,
      "perigee_km": 612.9110045610905,
      "latitude_deg": 1.5164027994904762e-05,
      "longitude_deg": -92.32366571642943,
      "height_km": 617.9172161200205,
      "semi_major_axis_km": 6992.092623198996,
      "eccentricity": 0.0001494,
      "inclination_deg": 97.8603,
      "raan_deg": 165.1128,
      "arg_perigee_deg": 153.2847,
      "mean_anomaly_deg": 206.8445,
      "mean_motion_rev_day": 14.84882206
    },
    {
      "epoch": "2026-03-30T06:16:25.538016Z",
      "apogee_km": 615.0027894422028,
      "perigee_km": 612.907119641588,
      "latitude_deg": -2.6826283706549722e-05,
      "longitude_deg": -116.58278401568248,
      "height_km": 617.9188565183804,
      "semi_major_axis_km": 6992.091954541895,
      "eccentricity": 0.00014986,
      "inclination_deg": 97.8603,
      "raan_deg": 165.1793,
      "arg_perigee_deg": 153.2161,
      "mean_anomaly_deg": 206.9131,
      "mean_motion_rev_day": 14.84882419
    },
    {
      "epoch": "2026-03-30T12:44:34.359936Z",
      "apogee_km": 615.0137299008948,
      "perigee_km": 612.8913510417806,
      "latitude_deg": 2.6839666752816738e-05,
      "longitude_deg": 146.38067372423026,
      "height_km": 617.9237357974304,
      "semi_major_axis_km": 6992.089540471337,
      "eccentricity": 0.00015177,
      "inclination_deg": 97.8603,
      "raan_deg": 165.4452,
      "arg_perigee_deg": 152.6713,
      "mean_anomaly_deg": 207.4582,
      "mean_motion_rev_day": 14.84883188
    },
    {
      "epoch": "2026-03-30T20:49:45.380640Z",
      "apogee_km": 615.0291235591658,
      "perigee_km": 612.8705265145409,
      "latitude_deg": -3.401488241739598e-05,
      "longitude_deg": 25.08506644189891,
      "height_km": 617.9298702418685,
      "semi_major_axis_km": 6992.086825036853,
      "eccentricity": 0.00015436,
      "inclination_deg": 97.8602,
      "raan_deg": 165.7776,
      "arg_perigee_deg": 151.8498,
      "mean_anomaly_deg": 208.28,
      "mean_motion_rev_day": 14.84884053
    },
    {
      "epoch": "2026-03-31T19:28:16.165344Z",
      "apogee_km": 615.0677268082372,
      "perigee_km": 612.816277369564,
      "latitude_deg": -3.6724636647765716e-06,
      "longitude_deg": 45.4575248067232,
      "height_km": 617.9455897611336,
      "semi_major_axis_km": 6992.0790020889,
      "eccentricity": 0.000161,
      "inclination_deg": 97.8601,
      "raan_deg": 166.7082,
      "arg_perigee_deg": 150.0389,
      "mean_anomaly_deg": 210.0918,
      "mean_motion_rev_day": 14.84886545
    },
    {
      "epoch": "2026-04-01T19:43:49.013184Z",
      "apogee_km": 615.1141808606062,
      "perigee_km": 612.7592504331769,
      "latitude_deg": 7.296231433403498e-05,
      "longitude_deg": 41.571462725722284,
      "height_km": 617.9668436928713,
      "semi_major_axis_km": 6992.073715646891,
      "eccentricity": 0.0001684,
      "inclination_deg": 97.86,
      "raan_deg": 167.7053,
      "arg_perigee_deg": 148.3145,
      "mean_anomaly_deg": 211.8172,
      "mean_motion_rev_day": 14.84888229
    },
    {
      "epoch": "2026-04-02T19:59:21.566400Z",
      "apogee_km": 615.1497744348808,
      "perigee_km": 612.6913669930182,
      "latitude_deg": -5.695174113832996e-06,
      "longitude_deg": 37.68665244974798,
      "height_km": 617.9738470670757,
      "semi_major_axis_km": 6992.057570713949,
      "eccentricity": 0.0001758,
      "inclination_deg": 97.8599,
      "raan_deg": 168.7024,
      "arg_perigee_deg": 146.517,
      "mean_anomaly_deg": 213.6156,
      "mean_motion_rev_day": 14.84893372
    },
    {
      "epoch": "2026-04-02T21:36:23.732352Z",
      "apogee_km": 615.1524053404428,
      "perigee_km": 612.6872857789713,
      "latitude_deg": 2.734817483303416e-05,
      "longitude_deg": 13.427704310237445,
      "height_km": 617.9744364576837,
      "semi_major_axis_km": 6992.056845559707,
      "eccentricity": 0.00017628,
      "inclination_deg": 97.8598,
      "raan_deg": 168.7689,
      "arg_perigee_deg": 146.393,
      "mean_anomaly_deg": 213.7397,
      "mean_motion_rev_day": 14.84893603
    },
    {
      "epoch": "2026-04-03T20:14:53.952000Z",
      "apogee_km": 615.1810863881938,
      "perigee_km": 612.6345836592782,
      "latitude_deg": 5.1247293384259e-05,
      "longitude_deg": 33.802523120700535,
      "height_km": 617.9793232815014,
      "semi_major_axis_km": 6992.044835023736,
      "eccentricity": 0.0001821,
      "inclination_deg": 97.8597,
      "raan_deg": 169.6995,
      "arg_perigee_deg": 145.0435,
      "mean_anomaly_deg": 215.09,
      "mean_motion_rev_day": 14.84897429
    },
    {
      "epoch": "2026-04-04T05:57:06.832800Z",
      "apogee_km": 615.1974526249196,
      "perigee_km": 612.6106771125615,
      "latitude_deg": 5.724850203534657e-05,
      "longitude_deg": -111.75085973864961,
      "height_km": 617.9875329764559,
      "semi_major_axis_km": 6992.04106486874,
      "eccentricity": 0.00018498,
      "inclination_deg": 97.8597,
      "raan_deg": 170.0983,
      "arg_perigee_deg": 144.6982,
      "mean_anomaly_deg": 215.4356,
      "mean_motion_rev_day": 14.8489863
    },
    {
      "epoch": "2026-04-05T11:03:45.408672Z",
      "apogee_km": 615.2276343473713,
      "perigee_km": 612.5631106508608,
      "latitude_deg": -3.6118008476966554e-05,
      "longitude_deg": 171.58938413469804,
      "height_km": 617.982411287477,
      "semi_major_axis_km": 6992.032372499116,
      "eccentricity": 0.00019054,
      "inclination_deg": 97.8595,
      "raan_deg": 171.2948,
      "arg_perigee_deg": 142.6623,
      "mean_anomaly_deg": 217.4724,
      "mean_motion_rev_day": 14.84901399
    },
    {
      "epoch": "2026-04-05T19:08:56.056992Z",
      "apogee_km": 615.2388969546955,
      "perigee_km": 612.5483635681703,
      "latitude_deg": -2.7282295059478024e-05,
      "longitude_deg": 50.29522213891219,
      "height_km": 617.983371296002,
      "semi_major_axis_km": 6992.030630261433,
      "eccentricity": 0.0001924,
      "inclination_deg": 97.8594,
      "raan_deg": 171.6271,
      "arg_perigee_deg": 142.1319,
      "mean_anomaly_deg": 218.0031,
      "mean_motion_rev_day": 14.84901954
    },
    {
      "epoch": "2026-04-06T04:51:08.809920Z",
      "apogee_km": 615.249806572725,
      "perigee_km": 612.5308868186885,
      "latitude_deg": 3.1315635135938486e-05,
      "longitude_deg": -95.25763429888475,
      "height_km": 617.981718239542,
      "semi_major_axis_km": 6992.027346695706,
      "eccentricity": 0.00019443,
      "inclination_deg": 97.8594,
      "raan_deg": 172.0259,
      "arg_perigee_deg": 141.4831,
      "mean_anomaly_deg": 218.6523,
      "mean_motion_rev_day": 14.84903
    },
    {
      "epoch": "2026-04-07T19:39:59.642784Z",
      "apogee_km": 615.310858714769,
      "perigee_km": 612.4497252388919,
      "latitude_deg": -4.041579342857072e-05,
      "longitude_deg": 42.53172829016497,
      "height_km": 617.9786161441388,
      "semi_major_axis_km": 6992.01729197683,
      "eccentricity": 0.0002046,
      "inclination_deg": 97.8593,
      "raan_deg": 173.6211,
      "arg_perigee_deg": 138.4649,
      "mean_anomaly_deg": 221.6721,
      "mean_motion_rev_day": 14.84906203
    }
  ]
}